[{"OBJECT_NAME":"GLOBAL-2","OBJECT_ID":"2018-099BG","EPOCH":"2026-03-09T16:47:21.463008","MEAN_MOTION":15.08046936,"ECCENTRICITY":0.00074537,"INCLINATION":97.3697,"RA_OF_ASC_NODE":109.328,"ARG_OF_PERICENTER":127.1924,"MEAN_ANOMALY":232.9986,"EPHEMERIS_TYPE":0,"CLASSIFICATION_TYPE":"U","NORAD_CAT_ID":43812,"ELEMENT_SET_NO":999,"REV_AT_EPOCH":39691,"BSTAR":0.0002614533,"MEAN_MOTION_DOT":3.97e-5,"MEAN_MOTION_DDOT":0},{"OBJECT_NAME":"STARLINK-3962","OBJECT_ID":"2022-053BE","EPOCH":"2026-03-09T12:07:45.523200","MEAN_MOTION":15.08836986,"ECCENTRICITY":0.00018311,"INCLINATION":53.2174,"RA_OF_ASC_NODE":134.9364,"ARG_OF_PERICENTER":105.0898,"MEAN_ANOMALY":255.0297,"EPHEMERIS_TYPE":0,"CLASSIFICATION_TYPE":"U","NORAD_CAT_ID":52708,"ELEMENT_SET_NO":999,"REV_AT_EPOCH":21149,"BSTAR":-9.9454038e-5,"MEAN_MOTION_DOT":-1.87e-5,"MEAN_MOTION_DDOT":0}]
