GLOBAL-2                
1 43812U 18099BG  26068.69955396  .00003970  00000+0  26145-3 0  9998
2 43812  97.3697 109.3280 0007454 127.1924 232.9986 15.08046936396919
STARLINK-3962           
1 52708U 22053BE  26068.50538800 -.00001870  00000+0 -99454-4 0  9997
2 52708  53.2174 134.9364 0001831 105.0898 255.0297 15.08836986211491
